[{"OBJECT_NAME":"STARLINK-33794","OBJECT_ID":"2025-092S","EPOCH":"2026-03-09T07:18:52.673184","MEAN_MOTION":15.27611759,"ECCENTRICITY":0.00016336,"INCLINATION":42.9993,"RA_OF_ASC_NODE":174.904,"ARG_OF_PERICENTER":276.8561,"MEAN_ANOMALY":83.2105,"EPHEMERIS_TYPE":0,"CLASSIFICATION_TYPE":"U","NORAD_CAT_ID":63820,"ELEMENT_SET_NO":999,"REV_AT_EPOCH":4855,"BSTAR":0.0011456603,"MEAN_MOTION_DOT":0.00031429,"MEAN_MOTION_DDOT":0},{"OBJECT_NAME":"GEOSCAN 3 (RS92S3)","OBJECT_ID":"2025-155T","EPOCH":"2026-03-09T22:52:10.587648","MEAN_MOTION":15.31696739,"ECCENTRICITY":0.00068078,"INCLINATION":97.4455,"RA_OF_ASC_NODE":37.9971,"ARG_OF_PERICENTER":154.1387,"MEAN_ANOMALY":206.0196,"EPHEMERIS_TYPE":0,"CLASSIFICATION_TYPE":"U","NORAD_CAT_ID":64893,"ELEMENT_SET_NO":999,"REV_AT_EPOCH":6564,"BSTAR":0.00078414081,"MEAN_MOTION_DOT":0.00023985,"MEAN_MOTION_DDOT":0}]
